      2.10          N: GNSS NAV DATA                        RINEX VERSION / TYPE
fic2rin                                 09/15/2018 00:20:19 PGM / RUN BY / DATE
                                                            END OF HEADER
13 18  9 14 20  0  0.0-8.916482329369e-05 6.821210263297e-13 0.000000000000e+00
    1.900000000000e+01 2.271875000000e+01 4.339823628217e-09-6.707661292674e-01
    1.177191734314e-06 3.380246227607e-03 1.047179102898e-05 5.153671810150e+03
    5.040000000000e+05-3.911554813385e-08-2.420416563151e+00-5.215406417847e-08
    9.684964767143e-01 1.775000000000e+02 1.465015191352e+00-7.947831059065e-09
   -3.650152043484e-10 1.000000000000e+00 2.018000000000e+03 0.000000000000e+00
    2.400000000000e+00 0.000000000000e+00-1.117587089539e-08 1.900000000000e+01
    4.968060000000e+05 4.000000000000e+00
21 18  9 14 20  0  0.0-3.370088525116e-04 5.911715561524e-12 0.000000000000e+00
    2.100000000000e+01-1.187500000000e+00 4.834487090078e-09 2.865549267915e+00
   -2.291053533554e-07 2.435746951960e-02 8.111819624901e-06 5.153629436493e+03
    5.040000000000e+05 4.284083843231e-07 1.596176741248e+00-1.061707735062e-07
    9.449305195547e-01 2.110000000000e+02-1.528269443059e+00-7.816039855147e-09
    3.614436270064e-10 1.000000000000e+00 2.018000000000e+03 0.000000000000e+00
    2.400000000000e+00 0.000000000000e+00-1.024454832077e-08 2.100000000000e+01
    4.968060000000e+05 4.000000000000e+00
12 18  9 14 20  0  0.0 3.069322556257e-04-2.728484105319e-12 0.000000000000e+00
    2.400000000000e+01-1.487500000000e+01 4.038739658289e-09-2.880008225023e+00
   -6.742775440216e-07 7.026642444544e-03 4.075467586517e-06 5.153771909714e+03
    5.040000000000e+05-1.303851604462e-08-3.811992406728e-01-2.048909664154e-08
    9.856625695795e-01 3.131562500000e+02 1.024472156532e+00-7.947116743597e-09
   -9.036090675161e-11 1.000000000000e+00 2.018000000000e+03 0.000000000000e+00
    2.400000000000e+00 0.000000000000e+00-1.257285475731e-08 2.400000000000e+01
    4.968060000000e+05 4.000000000000e+00
 9 18  9 14 20  0  0.0 5.064709112048e-04-2.046363078989e-12 0.000000000000e+00
    2.100000000000e+01 6.968750000000e+00 4.628049919713e-09 9.487377316718e-01
    2.309679985046e-07 1.011372660287e-03 1.034513115883e-05 5.153550117493e+03
    5.040000000000e+05-2.421438694000e-08-2.553765004414e+00 2.793967723846e-08
    9.529281200697e-01 1.759375000000e+02 1.740071742230e+00-8.013548082158e-09
   -3.092985978138e-10 1.000000000000e+00 2.018000000000e+03 0.000000000000e+00
    2.400000000000e+00 0.000000000000e+00 9.313225746155e-10 2.100000000000e+01
    4.968060000000e+05 4.000000000000e+00
26 18  9 14 20  0  0.0-2.032518386841e-05 1.159605744760e-11 0.000000000000e+00
    2.500000000000e+01-5.000000000000e-01 4.777699010341e-09 2.451691601196e+00
   -4.470348358154e-08 2.915714052506e-03 3.665685653687e-06 5.153718040466e+03
    5.040000000000e+05-1.117587089539e-08-4.662394278750e-01 3.166496753693e-08
    9.546352913403e-01 3.055312500000e+02 6.285615219961e-02-8.396064015482e-09
   -1.035757429169e-10 1.000000000000e+00 2.018000000000e+03 0.000000000000e+00
    2.400000000000e+00 0.000000000000e+00 7.450580596924e-09 2.500000000000e+01
    4.968060000000e+05 4.000000000000e+00
14 18  9 14 20  0  0.0-9.729759767652e-05 1.136868377216e-13 0.000000000000e+00
    7.800000000000e+01 4.000000000000e+00 4.585190991609e-09 2.598511471347e-01
    3.129243850708e-07 1.005792210344e-02 1.028925180435e-05 5.153628408432e+03
    5.040000000000e+05-1.545995473862e-07-2.463066097938e+00 6.705522537231e-08
    9.610793152797e-01 1.842500000000e+02-1.941588760314e+00-8.159982753178e-09
   -3.489431063096e-10 1.000000000000e+00 2.018000000000e+03 0.000000000000e+00
    2.400000000000e+00 0.000000000000e+00-9.778887033463e-09 7.800000000000e+01
    4.968060000000e+05 4.000000000000e+00
 7 18  9 14 20  0  0.0 1.241364516318e-04-6.593836587854e-12 0.000000000000e+00
    6.500000000000e+01 8.112500000000e+01 4.541974905772e-09-2.300046826800e+00
    4.095956683159e-06 1.207514863927e-02 6.740912795067e-06 5.153643285751e+03
    5.040000000000e+05 3.911554813385e-08-1.476304497985e+00-1.061707735062e-07
    9.572744847933e-01 2.483437500000e+02-2.491267414899e+00-7.987832725295e-09
    1.771502361613e-10 1.000000000000e+00 2.018000000000e+03 0.000000000000e+00
    2.400000000000e+00 0.000000000000e+00-1.117587089539e-08 6.500000000000e+01
    4.968060000000e+05 4.000000000000e+00
30 18  9 14 20  0  0.0 2.403138205409e-05-5.229594535194e-12 0.000000000000e+00
    1.800000000000e+01 8.587500000000e+01 4.904490005981e-09-2.318664908283e+00
    4.356727004051e-06 3.613375942223e-03 6.789341568947e-06 5.153692340851e+03
    5.040000000000e+05-1.490116119385e-08-1.444328694385e+00 1.117587089539e-08
    9.428309088061e-01 2.393437500000e+02-2.975350304746e+00-8.313560578882e-09
    1.067901625246e-10 1.000000000000e+00 2.018000000000e+03 0.000000000000e+00
    2.400000000000e+00 0.000000000000e+00 3.725290298462e-09 1.800000000000e+01
    4.968060000000e+05 4.000000000000e+00
22 18  9 14 20  0  0.0-5.191699601710e-04-1.091393642128e-11 0.000000000000e+00
    9.500000000000e+01-2.218750000000e+01 5.829171379814e-09-2.120772253648e-01
   -1.098960638046e-06 7.083283853717e-03 5.802139639854e-06 5.153710412979e+03
    5.040000000000e+05-2.607703208923e-08 2.632909434263e+00-3.166496753693e-08
    9.259030638534e-01 2.501250000000e+02-1.484069313124e+00-8.884298638128e-09
   -6.428839215530e-12 1.000000000000e+00 2.018000000000e+03 0.000000000000e+00
    2.400000000000e+00 0.000000000000e+00-1.816079020500e-08 9.500000000000e+01
    4.968060000000e+05 4.000000000000e+00
25 18  9 14 20  0  0.0-6.470158696175e-04-5.684341886081e-12 0.000000000000e+00
    8.900000000000e+01-2.937500000000e+00 4.270177870048e-09 2.977857706835e+00
   -1.769512891769e-07 7.461744709872e-03 3.866851329803e-06 5.153592201233e+03
    5.040000000000e+05-7.450580596924e-09-4.423110942039e-01-2.793967723846e-08
    9.731925242092e-01 3.098750000000e+02 8.631531546164e-01-8.101051727036e-09
   -6.428839215530e-11 1.000000000000e+00 2.018000000000e+03 0.000000000000e+00
    2.400000000000e+00 0.000000000000e+00 5.587935447693e-09 8.900000000000e+01
    4.968060000000e+05 4.000000000000e+00
24 18  9 14 20  0  0.0-5.538528785110e-05-5.684341886081e-13 0.000000000000e+00
    9.200000000000e+01 8.834375000000e+01 4.906632952386e-09-1.286002398613e+00
    4.542991518974e-06 7.244315231219e-03 7.975846529007e-06 5.153631132126e+03
    5.040000000000e+05 1.918524503708e-07-1.537959451076e+00-1.247972249985e-07
    9.403840364154e-01 2.165625000000e+02 5.327762980542e-01-8.276059016792e-09
    4.000166622996e-11 1.000000000000e+00 2.018000000000e+03 0.000000000000e+00
    3.400000000000e+00 0.000000000000e+00 2.793967723846e-09 9.200000000000e+01
    4.968060000000e+05 4.000000000000e+00
15 18  9 14 20  0  0.0-3.458894789219e-04 1.023181539495e-12 0.000000000000e+00
    9.200000000000e+01-5.875000000000e+00 5.405939464792e-09-3.838990808577e-01
   -2.998858690262e-07 1.070612948388e-02 9.577721357346e-06 5.153559112549e+03
    5.040000000000e+05 4.097819328308e-08-2.627255726947e+00 1.229345798492e-07
    9.284930579085e-01 1.757500000000e+02 7.000823536515e-01-8.552499103059e-09
   -4.300179119721e-10 1.000000000000e+00 2.018000000000e+03 0.000000000000e+00
    3.400000000000e+00 0.000000000000e+00-1.071020960808e-08 9.200000000000e+01
    4.968060000000e+05 4.000000000000e+00
23 18  9 14 20  0  0.0-2.108546905220e-04 7.958078640513e-13 0.000000000000e+00
    8.000000000000e+01 7.125000000000e+00 4.890560854347e-09-8.396976170505e-01
    3.520399332047e-07 1.264065271243e-02 9.747222065926e-06 5.153737092972e+03
    5.040000000000e+05 1.136213541031e-07-2.556433639094e+00 2.905726432800e-07
    9.437446415867e-01 1.816875000000e+02-2.327597292970e+00-8.256772499145e-09
   -3.493002640438e-10 1.000000000000e+00 2.018000000000e+03 0.000000000000e+00
    2.400000000000e+00 0.000000000000e+00-2.002343535423e-08 8.000000000000e+01
    4.968060000000e+05 4.000000000000e+00
17 18  9 14 20  0  0.0-5.578575655818e-05 4.433786671143e-12 0.000000000000e+00
    5.200000000000e+01-5.096875000000e+01 3.890519198598e-09 5.307902053597e-01
   -2.797693014145e-06 1.255556696560e-02 9.525567293167e-06 5.153617013931e+03
    5.040000000000e+05-1.732259988785e-07 6.520130716473e-01-1.117587089539e-08
    9.833934095513e-01 2.079375000000e+02-1.775635649392e+00-8.001761876929e-09
   -5.535944880039e-11 1.000000000000e+00 2.018000000000e+03 0.000000000000e+00
    2.400000000000e+00 0.000000000000e+00-1.117587089539e-08 5.200000000000e+01
    4.968060000000e+05 4.000000000000e+00
11 18  9 14 20  0  0.0-7.179500535131e-04 2.842170943040e-12 0.000000000000e+00
    6.000000000000e+01 1.687500000000e+00 5.550231189407e-09-2.302805230521e+00
    2.495944499969e-07 1.701723691076e-02 8.787959814072e-06 5.153658325195e+03
    5.040000000000e+05 1.825392246246e-07 1.219113123172e+00 2.086162567139e-07
    9.064527297375e-01 1.743750000000e+02 1.815334621779e+00-8.327489730516e-09
    3.650152043484e-10 1.000000000000e+00 2.018000000000e+03 0.000000000000e+00
    2.400000000000e+00 0.000000000000e+00-1.210719347000e-08 6.000000000000e+01
    4.968060000000e+05 4.000000000000e+00
32 18  9 14 20  0  0.0-4.236558452249e-04 1.114131009672e-11 0.000000000000e+00
    5.600000000000e+01-4.968750000000e+00 4.630192866118e-09 1.268148393391e+00
   -1.899898052216e-07 2.299991785549e-03 1.021102070808e-05 5.153707042694e+03
    5.040000000000e+05-2.235174179077e-08-2.548265182913e+00 2.048909664154e-08
    9.572677729251e-01 1.816875000000e+02-2.541224207937e+00-8.059978587603e-09
   -3.685867816904e-10 1.000000000000e+00 2.018000000000e+03 0.000000000000e+00
    2.400000000000e+00 0.000000000000e+00 4.656612873077e-10 5.600000000000e+01
    4.968060000000e+05 4.000000000000e+00
